OBJECT_NAME,OBJECT_ID,EPOCH,MEAN_MOTION,ECCENTRICITY,INCLINATION,RA_OF_ASC_NODE,ARG_OF_PERICENTER,MEAN_ANOMALY,EPHEMERIS_TYPE,CLASSIFICATION_TYPE,NORAD_CAT_ID,ELEMENT_SET_NO,REV_AT_EPOCH,BSTAR,MEAN_MOTION_DOT,MEAN_MOTION_DDOT,RMS,DATA_SOURCE
STARLINK-4625,2022-105AM,2026-01-02T19:54:42.000019,15.01264642,.0003356,97.6026,245.7371,69.1588,20.6915,0,C,53683,2,1,-.24877E-3,-.31894E-4,0,0.345,SpaceX-E
STARLINK-4624,2022-105AN,2026-01-02T19:57:41.999990,15.01261669,.0000627,97.6033,245.7950,196.5813,175.8824,0,C,53684,2,1,-.15621E-3,-.20024E-4,0,0.353,SpaceX-E
STARLINK-4626,2022-105AP,2026-01-02T19:56:42.000029,15.01241046,.0003853,97.6021,245.7482,64.1256,73.3076,0,C,53685,2,1,.54299E-3,.69594E-4,0,0.363,SpaceX-E
STARLINK-4467,2022-105AQ,2026-01-02T20:36:41.999962,15.01263775,.000162,97.6022,245.8159,90.2924,348.4464,0,C,53686,2,1,-.25771E-3,-.33036E-4,0,0.338,SpaceX-E
STARLINK-4569,2022-105AR,2026-01-02T19:59:42.000000,15.05664581,.0002815,97.6015,246.2594,84.6742,224.9152,0,C,53687,2,1,-.93098E-3,-.13408E-3,0,0.327,SpaceX-E
STARLINK-4571,2022-105AS,2026-01-02T19:56:42.000029,15.01265646,.0005163,97.6017,245.7421,53.9564,114.7176,0,C,53688,2,1,-.27602E-3,-.35395E-4,0,0.406,SpaceX-E
STARLINK-4570,2022-105AU,2026-01-02T19:55:41.999981,15.01262770,.0002193,97.6039,245.6820,90.9345,313.9676,0,C,53690,2,1,-.22175E-3,-.28426E-4,0,0.334,SpaceX-E
STARLINK-4560,2022-105AV,2026-01-02T19:59:42.000000,15.05647452,.0002068,97.6028,246.3008,83.6506,0.9396,0,C,53691,2,1,-.64685E-4,-.93146E-5,0,0.347,SpaceX-E
STARLINK-4572,2022-105AW,2026-01-02T20:06:41.999990,15.17189920,.0002731,97.6274,249.2169,82.2443,134.7255,0,C,53692,2,1,.39533E-3,.78346E-4,0,0.376,SpaceX-E
STARLINK-4566,2022-105AX,2026-01-02T19:56:42.000029,15.05635040,.0001641,97.6015,246.3903,88.8271,224.4434,0,C,53693,2,1,.70745E-3,.10187E-3,0,0.363,SpaceX-E
STARLINK-4725,2022-107A,2026-01-02T19:51:41.999962,15.08836260,.0001255,53.2139,179.4140,83.8287,7.1583,0,C,53700,2,1,.6851E-3,.10928E-3,0,0.243,SpaceX-E
STARLINK-4711,2022-107B,2026-01-02T19:53:41.999971,15.08831753,.0001321,53.2138,179.3688,88.2759,30.4128,0,C,53701,2,1,.65495E-4,.10443E-4,0,0.280,SpaceX-E
STARLINK-4724,2022-107C,2026-01-02T19:51:41.999962,15.08827184,.0001274,53.2143,164.6866,88.3740,245.0537,0,C,53702,2,1,.44346E-3,.70711E-4,0,0.248,SpaceX-E
STARLINK-4731,2022-107D,2026-01-02T19:50:42.000000,15.08835697,.0001398,53.2143,179.5358,89.5747,297.6639,0,C,53703,2,1,-.7719E-4,-.12308E-4,0,0.249,SpaceX-E
STARLINK-4714,2022-107E,2026-01-02T19:52:42.000010,15.08833729,.0001346,53.2137,180.0404,88.5518,45.8985,0,C,53704,2,1,.91651E-5,.14614E-5,0,0.245,SpaceX-E
STARLINK-4717,2022-107F,2026-01-02T19:50:42.000000,15.08839134,.0001314,53.2137,180.0074,87.4295,59.4885,0,C,53705,2,1,-.12496E-3,-.19927E-4,0,0.251,SpaceX-E
STARLINK-4716,2022-107G,2026-01-02T19:55:41.999981,15.08833673,.0001387,53.2144,179.8332,79.2501,166.5842,0,C,53706,2,1,.61134E-3,.97504E-4,0,0.246,SpaceX-E
STARLINK-4667,2022-107H,2026-01-02T19:56:42.000029,15.08832000,.0001389,53.2143,164.7860,85.0574,207.1498,0,C,53707,2,1,.30247E-3,.48232E-4,0,0.242,SpaceX-E
STARLINK-4694,2022-107J,2026-01-02T19:52:42.000010,15.08823585,.0001349,53.2145,164.6478,85.3769,271.8531,0,C,53708,2,1,.43164E-3,.68818E-4,0,0.262,SpaceX-E
STARLINK-4685,2022-107K,2026-01-02T19:57:41.999990,15.08832300,.0001128,53.2135,184.4640,95.1758,351.0049,0,C,53709,2,1,.3058E-3,.48765E-4,0,0.265,SpaceX-E
STARLINK-4627,2022-107M,2026-01-02T19:56:42.000029,15.08822451,.0001369,53.2136,184.5773,85.6676,296.6471,0,C,53711,2,1,.6439E-3,.10267E-3,0,0.243,SpaceX-E
STARLINK-4683,2022-107N,2026-01-02T19:50:42.000000,15.08833141,.0001305,53.2137,184.3370,87.9050,51.9617,0,C,53712,2,1,.14527E-3,.23164E-4,0,0.243,SpaceX-E
STARLINK-4686,2022-107R,2026-01-02T19:51:41.999962,15.08835909,.000126,53.2134,189.5052,87.8085,308.2251,0,C,53715,2,1,.26499E-5,.42256E-6,0,0.261,SpaceX-E
STARLINK-4699,2022-107S,2026-01-02T19:50:42.000000,15.08834236,.000139,53.2139,189.4697,89.4083,322.8698,0,C,53716,2,1,.10991E-3,.17527E-4,0,0.242,SpaceX-E
STARLINK-4695,2022-107U,2026-01-02T19:52:42.000010,15.08837596,.0001355,53.2139,190.0479,89.3200,24.9187,0,C,53718,2,1,-.10657E-3,-.16994E-4,0,0.246,SpaceX-E
STARLINK-4644,2022-107V,2026-01-02T19:55:41.999981,15.08835380,.0001201,53.2146,159.3961,87.9012,28.2798,0,C,53719,2,1,.25625E-3,.40865E-4,0,0.242,SpaceX-E
STARLINK-4642,2022-107W,2026-01-02T19:57:41.999990,15.08835267,.0001152,53.2136,189.5278,87.9449,310.7007,0,C,53720,2,1,.62601E-4,.99824E-5,0,0.240,SpaceX-E
STARLINK-4707,2022-107X,2026-01-02T19:49:42.000038,15.08836876,.0001455,53.2134,189.6307,90.6840,237.6725,0,C,53721,2,1,.35311E-3,.56317E-4,0,0.247,SpaceX-E
STARLINK-4700,2022-107Y,2026-01-02T19:53:41.999971,15.08841672,.0001606,53.2135,189.6934,90.3772,212.9591,0,C,53722,2,1,.60251E-3,.96118E-4,0,0.241,SpaceX-E
