{
  "53683": {
    "noradId": "53683",
    "tle": [
      "1 53683C 22105AM  26002.82965278 -.00003189  00000+0 -24877-3 0    20",
      "2 53683  97.6026 245.7371 0003356  69.1588  20.6915 15.01264642    15"
    ]
  },
  "53684": {
    "noradId": "53684",
    "tle": [
      "1 53684C 22105AN  26002.83173611 -.00002002  00000+0 -15621-3 0    24",
      "2 53684  97.6033 245.7950 0000627 196.5813 175.8824 15.01261669    19"
    ]
  },
  "53685": {
    "noradId": "53685",
    "tle": [
      "1 53685C 22105AP  26002.83104167  .00006959  00000+0  54299-3 0    22",
      "2 53685  97.6021 245.7482 0003853  64.1256  73.3076 15.01241046    10"
    ]
  },
  "53686": {
    "noradId": "53686",
    "tle": [
      "1 53686C 22105AQ  26002.85881944 -.00003304  00000+0 -25771-3 0    26",
      "2 53686  97.6022 245.8159 0001620  90.2924 348.4464 15.01263775    16"
    ]
  },
  "53687": {
    "noradId": "53687",
    "tle": [
      "1 53687C 22105AR  26002.83312500 -.00013408  00000+0 -93098-3 0    25",
      "2 53687  97.6015 246.2594 0002815  84.6742 224.9152 15.05664581    15"
    ]
  },
  "53688": {
    "noradId": "53688",
    "tle": [
      "1 53688C 22105AS  26002.83104167 -.00003540  00000+0 -27602-3 0    28",
      "2 53688  97.6017 245.7421 0005163  53.9564 114.7176 15.01265646    18"
    ]
  },
  "53690": {
    "noradId": "53690",
    "tle": [
      "1 53690C 22105AU  26002.83034722 -.00002843  00000+0 -22175-3 0    25",
      "2 53690  97.6039 245.6820 0002193  90.9345 313.9676 15.01262770    18"
    ]
  },
  "53691": {
    "noradId": "53691",
    "tle": [
      "1 53691C 22105AV  26002.83312500 -.00000931  00000+0 -64685-4 0    28",
      "2 53691  97.6028 246.3008 0002068  83.6506   0.9396 15.05647452    12"
    ]
  },
  "53692": {
    "noradId": "53692",
    "tle": [
      "1 53692C 22105AW  26002.83798611  .00007835  00000+0  39533-3 0    21",
      "2 53692  97.6274 249.2169 0002731  82.2443 134.7255 15.17189920    12"
    ]
  },
  "53693": {
    "noradId": "53693",
    "tle": [
      "1 53693C 22105AX  26002.83104167  .00010187  00000+0  70745-3 0    23",
      "2 53693  97.6015 246.3903 0001641  88.8271 224.4434 15.05635040    12"
    ]
  },
  "53700": {
    "noradId": "53700",
    "tle": [
      "1 53700C 22107A   26002.82756944  .00010928  00000+0  68510-3 0    29",
      "2 53700  53.2139 179.4140 0001255  83.8287   7.1583 15.08836260    19"
    ]
  },
  "53701": {
    "noradId": "53701",
    "tle": [
      "1 53701C 22107B   26002.82895833  .00001044  00000+0  65495-4 0    20",
      "2 53701  53.2138 179.3688 0001321  88.2759  30.4128 15.08831753    18"
    ]
  },
  "53702": {
    "noradId": "53702",
    "tle": [
      "1 53702C 22107C   26002.82756944  .00007071  00000+0  44346-3 0    27",
      "2 53702  53.2143 164.6866 0001274  88.3740 245.0537 15.08827184    19"
    ]
  },
  "53703": {
    "noradId": "53703",
    "tle": [
      "1 53703C 22107D   26002.82687500 -.00001231  00000+0 -77190-4 0    27",
      "2 53703  53.2143 179.5358 0001398  89.5747 297.6639 15.08835697    12"
    ]
  },
  "53704": {
    "noradId": "53704",
    "tle": [
      "1 53704C 22107E   26002.82826389  .00000146  00000+0  91651-5 0    29",
      "2 53704  53.2137 180.0404 0001346  88.5518  45.8985 15.08833729    14"
    ]
  },
  "53705": {
    "noradId": "53705",
    "tle": [
      "1 53705C 22107F   26002.82687500 -.00001993  00000+0 -12496-3 0    21",
      "2 53705  53.2137 180.0074 0001314  87.4295  59.4885 15.08839134    19"
    ]
  },
  "53706": {
    "noradId": "53706",
    "tle": [
      "1 53706C 22107G   26002.83034722  .00009750  00000+0  61134-3 0    25",
      "2 53706  53.2144 179.8332 0001387  79.2501 166.5842 15.08833673    15"
    ]
  },
  "53707": {
    "noradId": "53707",
    "tle": [
      "1 53707C 22107H   26002.83104167  .00004823  00000+0  30247-3 0    24",
      "2 53707  53.2143 164.7860 0001389  85.0574 207.1498 15.08832000    13"
    ]
  },
  "53708": {
    "noradId": "53708",
    "tle": [
      "1 53708C 22107J   26002.82826389  .00006882  00000+0  43164-3 0    20",
      "2 53708  53.2145 164.6478 0001349  85.3769 271.8531 15.08823585    19"
    ]
  },
  "53709": {
    "noradId": "53709",
    "tle": [
      "1 53709C 22107K   26002.83173611  .00004877  00000+0  30580-3 0    25",
      "2 53709  53.2135 184.4640 0001128  95.1758 351.0049 15.08832300    12"
    ]
  },
  "53711": {
    "noradId": "53711",
    "tle": [
      "1 53711C 22107M   26002.83104167  .00010267  00000+0  64390-3 0    24",
      "2 53711  53.2136 184.5773 0001369  85.6676 296.6471 15.08822451    13"
    ]
  },
  "53712": {
    "noradId": "53712",
    "tle": [
      "1 53712C 22107N   26002.82687500  .00002316  00000+0  14527-3 0    24",
      "2 53712  53.2137 184.3370 0001305  87.9050  51.9617 15.08833141    19"
    ]
  },
  "53715": {
    "noradId": "53715",
    "tle": [
      "1 53715C 22107R   26002.82756944  .00000042  00000+0  26499-5 0    23",
      "2 53715  53.2134 189.5052 0001260  87.8085 308.2251 15.08835909    16"
    ]
  },
  "53716": {
    "noradId": "53716",
    "tle": [
      "1 53716C 22107S   26002.82687500  .00001753  00000+0  10991-3 0    23",
      "2 53716  53.2139 189.4697 0001390  89.4083 322.8698 15.08834236    15"
    ]
  },
  "53718": {
    "noradId": "53718",
    "tle": [
      "1 53718C 22107U   26002.82826389 -.00001699  00000+0 -10657-3 0    25",
      "2 53718  53.2139 190.0479 0001355  89.3200  24.9187 15.08837596    19"
    ]
  },
  "53719": {
    "noradId": "53719",
    "tle": [
      "1 53719C 22107V   26002.83034722  .00004087  00000+0  25625-3 0    22",
      "2 53719  53.2146 159.3961 0001201  87.9012  28.2798 15.08835380    11"
    ]
  },
  "53720": {
    "noradId": "53720",
    "tle": [
      "1 53720C 22107W   26002.83173611  .00000998  00000+0  62601-4 0    28",
      "2 53720  53.2136 189.5278 0001152  87.9449 310.7007 15.08835267    13"
    ]
  },
  "53721": {
    "noradId": "53721",
    "tle": [
      "1 53721C 22107X   26002.82618056  .00005632  00000+0  35311-3 0    22",
      "2 53721  53.2134 189.6307 0001455  90.6840 237.6725 15.08836876    19"
    ]
  },
  "53722": {
    "noradId": "53722",
    "tle": [
      "1 53722C 22107Y   26002.82895833  .00009612  00000+0  60251-3 0    26",
      "2 53722  53.2135 189.6934 0001606  90.3772 212.9591 15.08841672    13"
    ]
  }
}